NORAD_CAT_ID,OBJECT_NAME,OBJECT_TYPE,EPOCH,MEAN_MOTION,ECCENTRICITY,INCLINATION,RA_OF_ASC_NODE,ARG_OF_PERICENTER,MEAN_ANOMALY,BSTAR,MEAN_MOTION_DOT,MEAN_MOTION_DDOT,TLE_LINE0,TLE_LINE1,TLE_LINE2,SEMIMAJOR_AXIS,PERIOD,APOGEE,PERIGEE,DECAYED
52341.0,STARLINK-3843,PAYLOAD,2022-08-20 22:00:00,15.08799284,0.0002014,53.2163,270.566,43.7479,328.5791,0.0020061,0.00031748,0.0,0 STARLINK-3843,1 52341U 22045L   22232.91667824  .00031748  00000-0  20061-2 0  9996,2 52341  53.2163 270.5660 0002014  43.7479 328.5791 15.08799284  1306,6918.005,95.44,541.263,538.477,0.0
52341.0,STARLINK-3843,PAYLOAD,2022-08-21 14:00:01,15.08806117,0.0002254,53.2163,267.5752,40.1368,355.32199999999995,0.0022499,0.00035668,0.0,0 STARLINK-3843,1 52341U 22045L   22233.58334491  .00035668  00000-0  22499-2 0  9993,2 52341  53.2163 267.5752 0002254  40.1368 355.3220 15.08806117 19979,6917.984,95.44,541.408,538.29,0.0
52341.0,STARLINK-3843,PAYLOAD,2022-08-21 22:00:00,15.08805992,0.0002064,53.2165,266.0771,44.7548,2.2843,0.0023096,0.00036627,0.0,0 STARLINK-3843,1 52341U 22045L   22233.91667824  .00036627  00000-0  23096-2 0  9999,2 52341  53.2165 266.0771 0002064  44.7548   2.2843 15.08805992  1302,6917.984,95.44,541.2769999999998,538.4209999999998,0.0
52341.0,STARLINK-3843,PAYLOAD,2022-08-22 06:00:00,15.08846357,0.0002179,53.2165,264.5817,44.7835,13.8208,-0.0019168,-0.00030671,0.0,0 STARLINK-3843,1 52341U 22045L   22234.25001157 -.00030671  00000-0 -19168-2 0  9998,2 52341  53.2165 264.5817 0002179  44.7835  13.8208 15.08846357 20070,6917.861,95.437,541.2330000000002,538.219,0.0
52341.0,STARLINK-3843,PAYLOAD,2022-08-22 12:00:00,15.08810638,0.0002311,53.2164,263.4604,42.1515,295.1507,0.002433,0.00038615,0.0,0 STARLINK-3843,1 52341U 22045L   22234.50001157  .00038615  00000-0  24330-2 0  9997,2 52341  53.2164 263.4604 0002311  42.1515 295.1507 15.08810638  1301,6917.97,95.439,541.434,538.236,0.0
52341.0,STARLINK-3843,PAYLOAD,2022-08-22 22:00:00,15.08811669,0.0002081,53.2163,261.5882,45.7493,36.0353,0.0024309,0.00038582,0.0,0 STARLINK-3843,1 52341U 22045L   22234.91667824  .00038582  00000-0  24309-2 0  9990,2 52341  53.2163 261.5882 0002081  45.7493  36.0353 15.08811669 20177,6917.967,95.439,541.2719999999998,538.3919999999998,0.0
52341.0,STARLINK-3843,PAYLOAD,2022-08-23 14:00:01,15.08827914,0.0002305,53.2157,258.5972,41.9427,63.011,0.001185,0.00018616,0.0,0 STARLINK-3843,1 52341U 22045L   22235.58334491  .00018616  00000-0  11850-2 0  9998,2 52341  53.2157 258.5972 0002305  41.9427  63.0110 15.08827914  1305,6917.917,95.438,541.377,538.188,0.0
52341.0,STARLINK-3843,PAYLOAD,2022-08-23 22:00:01,15.08815903,0.0002096,53.2157,257.0991,47.0809,69.5334,0.0024319,0.00038603,0.0,0 STARLINK-3843,1 52341U 22045L   22235.91668981  .00038603  00000-0  24319-2 0  9991,2 52341  53.2157 257.0991 0002096  47.0809  69.5334 15.08815903  1302,6917.954000000002,95.439,541.269,538.369,0.0
52341.0,STARLINK-3843,PAYLOAD,2022-08-24 14:00:01,15.08835405,0.0002323,53.215,254.1081,43.6396,96.0889,0.00060449,9.344e-05,0.0,0 STARLINK-3843,1 52341U 22045L   22236.58334491  .00009344  00000-0  60449-3 0  9996,2 52341  53.2150 254.1081 0002323  43.6396  96.0889 15.08835405  1308,6917.894,95.438,541.366,538.1519999999998,0.0
52341.0,STARLINK-3843,PAYLOAD,2022-08-24 16:00:00,15.08855201,0.0002269,53.215,253.7335,45.215,187.4071,-0.0020635,-0.00032994,0.0,0 STARLINK-3843,1 52341U 22045L   22236.66667824 -.00032994  00000-0 -20635-2 0  9995,2 52341  53.2150 253.7335 0002269  45.2150 187.4071 15.08855201 20439,6917.834,95.437,541.269,538.129,0.0
52341.0,STARLINK-3843,PAYLOAD,2022-08-24 22:00:00,15.08819522,0.0002139,53.2149,252.6101,48.8507,102.4795,0.0023385999999999,0.00037107,0.0,0 STARLINK-3843,1 52341U 22045L   22236.91667824  .00037107  00000-0  23386-2 0  9998,2 52341  53.2149 252.6101 0002139  48.8507 102.4795 15.08819522  1308,6917.943,95.439,541.288,538.328,0.0
52341.0,STARLINK-3843,PAYLOAD,2022-08-25 06:00:02,15.08853388,0.0002284,53.2149,251.1149,47.94,115.0405,-0.0017329999999999,-0.00027774,0.0,0 STARLINK-3843,1 52341U 22045L   22237.25002315 -.00027774  00000-0 -17330-2 0  9997,2 52341  53.2149 251.1149 0002284  47.9400 115.0405 15.08853388 20528,6917.839,95.437,541.285,538.124,0.0
52341.0,STARLINK-3843,PAYLOAD,2022-08-25 14:00:01,15.08843182,0.0002367,53.2144,249.6188,45.3072,129.2062,2.8593e-05,1.67e-06,0.0,0 STARLINK-3843,1 52341U 22045L   22237.58334491  .00000167  00000-0  28593-4 0  9996,2 52341  53.2144 249.6188 0002367  45.3072 129.2062 15.08843182  1309,6917.871,95.437,541.373,538.0980000000002,0.0
52341.0,STARLINK-3843,PAYLOAD,2022-08-25 22:00:00,15.08823084,0.0002217,53.2143,248.1207,50.1912,135.9276,0.002266,0.00035944,0.0,0 STARLINK-3843,1 52341U 22045L   22237.91667824  .00035944  00000-0  22660-2 0  9990,2 52341  53.2143 248.1207 0002217  50.1912 135.9276 15.08823084  1305,6917.932,95.439,541.331,538.263,0.0
52341.0,STARLINK-3843,PAYLOAD,2022-08-26 14:00:01,15.08851754,0.0002438,53.2142,245.1292,46.3743,162.9972,-0.00055635,-9.135e-05,0.0,0 STARLINK-3843,1 52341U 22045L   22238.58335648 -.00009135  00000-0 -55635-3 0  9994,2 52341  53.2142 245.1292 0002438  46.3743 162.9972 15.08851754  1307,6917.844,95.437,541.396,538.023,0.0
52341.0,STARLINK-3843,PAYLOAD,2022-08-26 22:00:00,15.08829079,0.0002323999999999,53.2143,243.6312,51.1917,169.7292,0.0023683,0.00037594,0.0,0 STARLINK-3843,1 52341U 22045L   22238.91667824  .00037594  00000-0  23683-2 0  9990,2 52341  53.2143 243.6312 0002324  51.1917 169.7292 15.08829079  1300,6917.9140000000025,95.438,541.386,538.1709999999998,0.0
52341.0,STARLINK-3843,PAYLOAD,2022-08-27 14:00:01,15.08862644,0.0002525,53.2145,240.6396,47.4135,196.7092,-0.0010815999999999,-0.00017472,0.0,0 STARLINK-3843,1 52341U 22045L   22239.58334491 -.00017472  00000-0 -10816-2 0  9994,2 52341  53.2145 240.6396 0002525  47.4135 196.7092 15.08862644  1307,6917.811,95.436,541.423,537.929,0.0
52341.0,STARLINK-3843,PAYLOAD,2022-08-27 22:00:00,15.08847739,0.0002392,53.2148,239.1415,51.7753,203.9672,0.00016749,2.379e-05,0.0,0 STARLINK-3843,1 52341U 22045L   22239.91667824  .00002379  00000-0  16749-3 0  9990,2 52341  53.2148 239.1415 0002392  51.7753 203.9672 15.08847739  1304,6917.857,95.437,541.376,538.067,0.0
52341.0,STARLINK-3843,PAYLOAD,2022-08-28 14:00:01,15.08849422,0.0002532,53.2151,236.15,47.0976,231.8393,-0.0015414,-0.00024744,0.0,0 STARLINK-3843,1 52341U 22045L   22240.58334491 -.00024744  00000-0 -15414-2 0  9995,2 52341  53.2151 236.1500 0002532  47.0976 231.8393 15.08849422  1302,6917.852,95.437,541.4680000000002,537.965,0.0
52341.0,STARLINK-3843,PAYLOAD,2022-08-28 22:00:00,15.08821484,0.0002435999999999,53.2155,234.652,52.0688,238.4698,0.0025065,0.00039809,0.0,0 STARLINK-3843,1 52341U 22045L   22240.91667824  .00039809  00000-0  25065-2 0  9990,2 52341  53.2155 234.6520 0002436  52.0688 238.4698 15.08821484  1309,6917.937,95.439,541.487,538.117,0.0
52341.0,STARLINK-3843,PAYLOAD,2022-08-29 14:00:01,15.08778352,0.0002455,53.2164,231.6544,46.1919,267.4983,0.01027,0.00166774,0.0,0 STARLINK-3843,1 52341U 22045L   22241.58334491  .00166774  00000-0  10270-1 0  9998,2 52341  53.2164 231.6544 0002455  46.1919 267.4983 15.08778352  1308,6918.069,95.441,541.632,538.235,0.0
52341.0,STARLINK-3843,PAYLOAD,2022-08-29 16:00:00,15.08807662,0.0002453,53.216,231.2859,45.8346,0.7402,0.001227,0.00019277,0.0,0 STARLINK-3843,1 52341U 22045L   22241.66667824  .00019277  00000-0  12270-2 0  9994,2 52341  53.2160 231.2859 0002453  45.8346   0.7402 15.08807662 21197,6917.979,95.44,541.5409999999998,538.1469999999998,0.0
52341.0,STARLINK-3843,PAYLOAD,2022-08-29 22:00:00,15.08816862,0.0002335999999999,53.2162,230.1628,48.1857,277.0607,0.0029619,0.00047137,0.0,0 STARLINK-3843,1 52341U 22045L   22241.91667824  .00047137  00000-0  29619-2 0  9993,2 52341  53.2162 230.1628 0002336  48.1857 277.0607 15.08816862  1303,6917.951,95.439,541.432,538.2,0.0
52341.0,STARLINK-3843,PAYLOAD,2022-08-30 14:00:01,15.08860815,0.0002477,53.2161,227.1712,44.777,303.6465,-0.0020765,-0.00033205,0.0,0 STARLINK-3843,1 52341U 22045L   22242.58334491 -.00033205  00000-0 -20765-2 0  9994,2 52341  53.2161 227.1712 0002477  44.7770 303.6465 15.08860815  1309,6917.816999999999,95.436,541.395,537.9680000000002,0.0
52341.0,STARLINK-3843,PAYLOAD,2022-08-30 22:00:00,15.08833712,0.0002352,53.2165,225.6737,50.0925,309.9397,0.0022729,0.00036065,0.0,0 STARLINK-3843,1 52341U 22045L   22242.91667824  .00036065  00000-0  22729-2 0  9997,2 52341  53.2165 225.6737 0002352  50.0925 309.9397 15.08833712 21375,6917.9,95.438,541.3919999999998,538.138,0.0
52341.0,STARLINK-3843,PAYLOAD,2022-08-31 14:00:01,15.0887845,0.0002446,53.2161,222.682,46.1279,337.1097,-0.0051861999999999,-0.00081979,0.0,0 STARLINK-3843,1 52341U 22045L   22243.58334491 -.00081979  00000-0 -51862-2 0  9998,2 52341  53.2161 222.6820 0002446  46.1279 337.1097 15.08878450 21483,6917.763000000001,95.435,541.32,537.936,0.0
52341.0,STARLINK-3843,PAYLOAD,2022-08-31 22:00:00,15.08830788,0.0002542,53.2172,221.1745,47.7968,347.0689,0.00063432,9.819e-05,0.0,0 STARLINK-3843,1 52341U 22045L   22243.91667824  .00009819  00000-0  63432-3 0  9992,2 52341  53.2172 221.1745 0002542  47.7968 347.0689 15.08830788 21539,6917.909000000002,95.438,541.5319999999998,538.015,0.0
52341.0,STARLINK-3843,PAYLOAD,2022-09-01 14:00:01,15.08850274,0.000243,53.2158,218.1929,47.9437,10.1799,-0.0020268,-0.00032411,0.0,0 STARLINK-3843,1 52341U 22045L   22244.58335648 -.00032411  00000-0 -20268-2 0  9997,2 52341  53.2158 218.1929 0002430  47.9437  10.1799 15.08850274  1307,6917.849,95.437,541.395,538.033,0.0
52341.0,STARLINK-3843,PAYLOAD,2022-09-01 22:00:00,15.08834396,0.0002491,53.2174,216.6842,49.5586,20.0824,0.00032614,4.905e-05,0.0,0 STARLINK-3843,1 52341U 22045L   22244.91667824  .00004905  00000-0  32614-3 0  9992,2 52341  53.2174 216.6842 0002491  49.5586  20.0824 15.08834396  1308,6917.898,95.438,541.486,538.039,0.0
